norad_id,name,regime,epoch,line1,line2,inclination,eccentricity,mean_motion,raan,arg_pericenter,mean_anomaly
43015,MIRATA,LEO,19164.20436138,1 43015U 17073C   19164.20436138  .00000457  00000-0  41133-4 0  4895,2 43015  97.7201  85.6337 0255436 175.3519 185.0156 14.78960719 84481,97.7201,0.0255436,14.78960719,85.6337,175.3519,185.0156
43015,MIRATA,LEO,19164.74563019,1 43015U 17073C   19164.74563019 +.00000430 +00000-0 +38993-4 0 0001,2 43015 097.7200 086.1538 0255483 173.5882 186.8708 14.7896115108456,97.72,0.0255483,14.78961151,86.1538,173.5882,186.8708
43015,MIRATA,LEO,19165.48987419,1 43015U 17073C   19165.48987419  .00000458  00000-0  41147-4 0  4907,2 43015  97.7200  86.8692 0255550 171.1611 189.4232 14.78962108 84679,97.72,0.025555,14.78962108,86.8692,171.1611,189.4232
43015,MIRATA,LEO,19165.76050831,1 43015U 17073C   19165.76050831 +.00000455 +00000-0 +40896-4 0 0001,2 43015 097.7199 087.1293 0255577 170.2775 190.3523 14.7896237908471,97.7199,0.0255577,14.78962379,87.1293,170.2775,190.3523
43015,MIRATA,LEO,19166.70772734,1 43015U 17073C   19166.70772734  .00000409  00000-0  37290-4 0  4916,2 43015  97.7199  88.0397 0255645 167.1930 193.5943 14.78962928 84851,97.7199,0.0255645,14.78962928,88.0397,167.193,193.5943
43015,MIRATA,LEO,19166.84304434,1 43015U 17073C   19166.84304434 +.00000406 +00000-0 +37025-4 0 0001,2 43015 097.7199 088.1698 0255651 166.7506 194.0591 14.7896301508487,97.7199,0.0255651,14.78963015,88.1698,166.7506,194.0591
43015,MIRATA,LEO,19167.72260398,1 43015U 17073C   19167.72260398  .00000431  00000-0  38966-4 0  4924,2 43015  97.7199  89.0151 0255708 163.8865 197.0675 14.78963880 85007,97.7199,0.0255708,14.7896388,89.0151,163.8865,197.0675
43015,MIRATA,LEO,19168.73747916,1 43015U 17073C   19168.73747916  .00000445  00000-0  39999-4 0  4935,2 43015  97.7199  89.9904 0255782 160.5838 200.5339 14.78964956 85156,97.7199,0.0255782,14.78964956,89.9904,160.5838,200.5339
43015,MIRATA,LEO,19169.75235319,1 43015U 17073C   19169.75235319  .00000404  00000-0  36766-4 0  4942,2 43015  97.7199  90.9657 0255855 157.2822 203.9958 14.78965699 85306,97.7199,0.0255855,14.78965699,90.9657,157.2822,203.9958
43015,MIRATA,LEO,19170.36127704,1 43015U 17073C   19170.36127704 +.00000372 +00000-0 +34282-4 0 0001,2 43015 097.7198 091.5510 0255909 155.3004 206.0719 14.7896603808539,97.7198,0.0255909,14.78966038,91.551,155.3004,206.0719
43015,MIRATA,LEO,19170.97020020,1 43015U 17073C   19170.97020020  .00000387  00000-0  35458-4 0  4957,2 43015  97.7197  92.1362 0255955 153.3209 208.1442 14.78966640 85489,97.7197,0.0255955,14.7896664,92.1362,153.3209,208.1442
43015,MIRATA,LEO,19171.78209716,1 43015U 17073C   19171.78209716 +.00000394 +00000-0 +35976-4 0 0001,2 43015 097.7196 092.9164 0256015 150.6816 210.9045 14.7896730708560,97.7196,0.0256015,14.78967307,92.9164,150.6816,210.9045
43015,MIRATA,LEO,19172.18804529,1 43015U 17073C   19172.18804529  .00000413  00000-0  37392-4 0  4966,2 43015  97.7196  93.3066 0256045 149.3622 212.2832 14.78967728 85664,97.7196,0.0256045,14.78967728,93.3066,149.3622,212.2832
43015,MIRATA,LEO,19172.72930888,1 43015U 17073C   19172.72930888 +.00000424 +00000-0 +38250-4 0 0001,2 43015 097.7196 093.8267 0256084 147.6034 214.1196 14.7896829308574,97.7196,0.0256084,14.78968293,93.8267,147.6034,214.1196
43015,MIRATA,LEO,19173.40588777,1 43015U 17073C   19173.40588777  .00000422  00000-0  38084-4 0  4976,2 43015  97.7195  94.4769 0256128 145.4044 216.4137 14.78968928 85849,97.7195,0.0256128,14.78968928,94.4769,145.4044,216.4137
43015,MIRATA,LEO,19173.74417694,1 43015U 17073C   19173.74417694 +.00000412 +00000-0 +37282-4 0 0001,2 43015 097.7195 094.8020 0256153 144.3058 217.5588 14.7896919808589,97.7195,0.0256153,14.78969198,94.802,144.3058,217.5588
43015,MIRATA,LEO,19174.75904325,1 43015U 17073C   19174.75904325  .00000409  00000-0  37041-4 0  4984,2 43015  97.7194  95.7773 0256252 141.0086 220.9916 14.78970108 86044,97.7194,0.0256252,14.78970108,95.7773,141.0086,220.9916
43015,MIRATA,LEO,19175.43561967,1 43015U 17073C   19175.43561967 +.00000458 +00000-0 +40826-4 0 0001,2 43015 097.7194 096.4275 0256303 138.8111 223.2759 14.7897096008614,97.7194,0.0256303,14.7897096,96.4275,138.8111,223.2759
43015,MIRATA,LEO,19176.04453785,1 43015U 17073C   19176.04453785  .00000452  00000-0  40343-4 0  4995,2 43015  97.7195  97.0126 0256341 136.8330 225.3295 14.78971435 86239,97.7195,0.0256341,14.78971435,97.0126,136.833,225.3295
43015,MIRATA,LEO,19176.31516800,1 43015U 17073C   19176.31516800 +.00000454 +00000-0 +40473-4 0 0001,2 43015 097.7195 097.2727 0256359 135.9540 226.2413 14.7897166308627,97.7195,0.0256359,14.78971663,97.2727,135.954,226.2413
43015,MIRATA,LEO,19177.33002944,1 43015U 17073C   19177.33002944  .00000439  00000-0  39241-4 0  5008,2 43015  97.7195  98.2479 0256421 132.6597 229.6537 14.78972538 86423,97.7195,0.0256421,14.78972538,98.2479,132.6597,229.6537
43015,MIRATA,LEO,19177.73597336,1 43015U 17073C   19177.73597336 +.00000443 +00000-0 +39601-4 0 0001,2 43015 097.7195 098.6380 0256444 131.3422 231.0164 14.7897298908648,97.7195,0.0256444,14.78972989,98.638,131.3422,231.0164
43015,MIRATA,LEO,19178.34488878,1 43015U 17073C   19178.34488878  .00000438  00000-0  39196-4 0  5013,2 43015  97.7195  99.2232 0256492 129.3643 233.0600 14.78973561 86577,97.7195,0.0256492,14.78973561,99.2232,129.3643,233.06
43015,MIRATA,LEO,19178.88614606,1 43015U 17073C   19178.88614606 +.00000446 +00000-0 +39811-4 0 0001,2 43015 097.7195 099.7434 0256508 127.6047 234.8754 14.7897418808665,97.7195,0.0256508,14.78974188,99.7434,127.6047,234.8754
43015,MIRATA,LEO,19179.35974578,1 43015U 17073C   19179.35974578  .00000442  00000-0  39484-4 0  5028,2 43015  97.7195 100.1985 0256539 126.0686 236.4584 14.78974612 86720,97.7195,0.0256539,14.78974612,100.1985,126.0686,236.4584
43015,MIRATA,LEO,19179.76568790,1 43015U 17073C   19179.76568790 +.00000460 +00000-0 +40834-4 0 0001,2 43015 097.7195 100.5886 0256567 124.7536 237.8123 14.7897510708678,97.7195,0.0256567,14.78975107,100.5886,124.7536,237.8123
43015,MIRATA,LEO,19180.44225755,1 43015U 17073C   19180.44225755  .00000463  00000-0  41043-4 0  5034,2 43015  97.7195 101.2388 0256606 122.5594 240.0683 14.78975688 86885,97.7195,0.0256606,14.78975688,101.2388,122.5594,240.0683
43015,MIRATA,LEO,19180.84819888,1 43015U 17073C   19180.84819888 +.00000464 +00000-0 +41153-4 0 0001,2 43015 097.7195 101.6289 0256626 121.2425 241.4204 14.7897606508694,97.7195,0.0256626,14.78976065,101.6289,121.2425,241.4204
43015,MIRATA,LEO,19181.72773701,1 43015U 17073C   19181.72773701  .00000474  00000-0  41889-4 0  5046,2 43015  97.7195 102.4741 0256665 118.3883 244.3461 14.78976982 87071,97.7195,0.0256665,14.78976982,102.4741,118.3883,244.3461
43015,MIRATA,LEO,19182.74258592,1 43015U 17073C   19182.74258592  .00000565  00000-0  48867-4 0  5050,2 43015  97.7194 103.4493 0256705 115.0914 247.7174 14.78978722 87228,97.7194,0.0256705,14.78978722,103.4493,115.0914,247.7174
43015,MIRATA,LEO,19183.75743220,1 43015U 17073C   19183.75743220  .00000594  00000-0  51093-4 0  5067,2 43015  97.7193 104.4245 0256758 111.8036 251.0704 14.78980136 87375,97.7193,0.0256758,14.78980136,104.4245,111.8036,251.0704
43015,MIRATA,LEO,19184.56930734,1 43015U 17073C   19184.56930734 +.00000664 +00000-0 +56481-4 0 0001,2 43015 097.7193 105.2047 0256786 109.1726 253.7468 14.7898146608749,97.7193,0.0256786,14.78981466,105.2047,109.1726,253.7468
43015,MIRATA,LEO,19184.97524389,1 43015U 17073C   19184.97524389  .00000732  00000-0  61706-4 0  5072,2 43015  97.7193 105.5948 0256796 107.8571 255.0827 14.78982444 87552,97.7193,0.0256796,14.78982444,105.5948,107.8571,255.0827
43015,MIRATA,LEO,19185.92242793,1 43015U 17073C   19185.92242793 +.00000814 +00000-0 +68058-4 0 0001,2 43015 097.7192 106.5050 0256820 104.7863 258.1953 14.7898424608769,97.7192,0.025682,14.78984246,106.505,104.7863,258.1953
43015,MIRATA,LEO,19185.99008384,1 43015U 17073C   19185.99008384  .00000810  00000-0  67752-4 0  5082,2 43015  97.7192 106.5700 0256827 104.5668 258.4176 14.78984322 87702,97.7192,0.0256827,14.78984322,106.57,104.5668,258.4176
43015,MIRATA,LEO,19186.73429813,1 43015U 17073C   19186.73429813 +.00000780 +00000-0 +65388-4 0 0001,2 43015 097.7191 107.2852 0256841 102.1537 260.8571 14.7898527608781,97.7191,0.0256841,14.78985276,107.2852,102.1537,260.8571
43015,MIRATA,LEO,19187.20788832,1 43015U 17073C   19187.20788832  .00000701  00000-0  59334-4 0  5098,2 43015  97.7191 107.7403 0256868 100.6206 262.4045 14.78985564 87882,97.7191,0.0256868,14.78985564,107.7403,100.6206,262.4045
43015,MIRATA,LEO,19187.81678876,1 43015U 17073C   19187.81678876 +.00000699 +00000-0 +59193-4 0 0001,2 43015 097.7191 108.3254 0256879 098.6459 264.3943 14.7898654508797,97.7191,0.0256879,14.78986545,108.3254,98.6459,264.3943
43015,MIRATA,LEO,19188.35803289,1 43015U 17073C   19188.35803289  .00000688  00000-0  58316-4 0  5104,2 43015  97.7191 108.8455 0256895  96.8925 266.1582 14.78987299 88059,97.7191,0.0256895,14.78987299,108.8455,96.8925,266.1582
43015,MIRATA,LEO,19188.83162064,1 43015U 17073C   19188.83162064 +.00000702 +00000-0 +59348-4 0 0001,2 43015 097.7190 109.3006 0256900 095.3578 267.6998 14.7898812708812,97.719,0.02569,14.78988127,109.3006,95.3578,267.6998
43015,MIRATA,LEO,19189.37286296,1 43015U 17073C   19189.37286296  .00000798  00000-0  66762-4 0  5117,2 43015  97.7190 109.8207 0256908  93.6046 269.4583 14.78989492 88209,97.719,0.0256908,14.78989492,109.8207,93.6046,269.4583
43015,MIRATA,LEO,19189.84644963,1 43015U 17073C   19189.84644963 +.00000766 +00000-0 +64340-4 0 0001,2 43015 097.7190 110.2757 0256911 092.0680 270.9972 14.7898999608827,97.719,0.0256911,14.78989996,110.2757,92.068,270.9972
43015,MIRATA,LEO,19190.45534502,1 43015U 17073C   19190.45534502  .00000935  00000-0  77367-4 0  5121,2 43015  97.7190 110.8608 0256916  90.0957 272.9693 14.78991998 88369,97.719,0.0256916,14.78991998,110.8608,90.0957,272.9693
